COMMENT,ORIGINATOR,NORAD_CAT_ID,OBJECT_NAME,OBJECT_TYPE,CLASSIFICATION_TYPE,INTLDES,EPOCH,EPOCH_MICROSECONDS,MEAN_MOTION,ECCENTRICITY,INCLINATION,RA_OF_ASC_NODE,ARG_OF_PERICENTER,MEAN_ANOMALY,EPHEMERIS_TYPE,ELEMENT_SET_NO,REV_AT_EPOCH,BSTAR,MEAN_MOTION_DOT,MEAN_MOTION_DDOT,FILE,TLE_LINE0,TLE_LINE1,TLE_LINE2,OBJECT_ID,OBJECT_NUMBER,SEMIMAJOR_AXIS,PERIOD,APOGEE,PERIGEE,DECAYED
GENERATED VIA SPACETRACK.ORG API,18 SPCS,52365,STARLINK-3874,PAYLOAD,U,22045AL,2023-08-11 18:52:27,534720,15.08843627,0.0001011,53.2133,93.0007,82.7253,277.3854,0,999,7387,0.00018656,2.683e-05,0,3978008,0 STARLINK-3874,1 52365U 22045AL  23223.78642980  .00002683  00000-0  18656-3 0  9998,2 52365  53.2133  93.0007 0001011  82.7253 277.3854 15.08843627 73874,2022-045AL,52365,6917.869,95.437,540.434,539.035,0
GENERATED VIA SPACETRACK.ORG API,18 SPCS,52365,STARLINK-3874,PAYLOAD,U,22045AL,2023-08-13 01:04:46,851744,15.08845161,8.07e-05,53.2161,87.3525,97.0951,263.0133,0,999,7406,0.00010207,1.337e-05,0,3979112,0 STARLINK-3874,1 52365U 22045AL  23225.04498671  .00001337  00000-0  10207-3 0  9994,2 52365  53.2161  87.3525 0000807  97.0951 263.0133 15.08845161 74061,2022-045AL,52365,6917.865,95.437,540.288,539.171,0
GENERATED VIA SPACETRACK.ORG API,18 SPCS,52365,STARLINK-3874,PAYLOAD,U,22045AL,2023-08-14 00:55:33,14784,15.08865883,7.63e-05,53.2166,82.892,106.1161,253.9916,0,999,7421,0.00062986,9.758e-05,0,3979917,0 STARLINK-3874,1 52365U 22045AL  23226.03857656  .00009758  00000-0  62986-3 0  9992,2 52365  53.2166  82.8920 0000763 106.1161 253.9916 15.08865883 74218,2022-045AL,52365,6917.801,95.436,540.194,539.138,0
GENERATED VIA SPACETRACK.ORG API,18 SPCS,52365,STARLINK-3874,PAYLOAD,U,22045AL,2023-08-15 00:46:21,112320,15.0883706,0.000134,53.2165,78.4321,78.0767,282.0376,0,999,7436,0.00010665,1.41e-05,0,3980712,0 STARLINK-3874,1 52365U 22045AL  23227.03218880  .00001410  00000-0  10665-3 0  9997,2 52365  53.2165  78.4321 0001340  78.0767 282.0376 15.08837060 74369,2022-045AL,52365,6917.889,95.438,540.681,538.827,0
GENERATED VIA SPACETRACK.ORG API,18 SPCS,52365,STARLINK-3874,PAYLOAD,U,22045AL,2023-08-16 00:37:08,262048,15.08845343,0.0001046,53.2159,73.9697,72.5557,287.5549,0,999,7451,0.0005431,8.367e-05,0,3982174,0 STARLINK-3874,1 52365U 22045AL  23228.02579007  .00008367  00000-0  54310-3 0  9991,2 52365  53.2159  73.9697 0001046  72.5557 287.5549 15.08845343 74519,2022-045AL,52365,6917.864,95.437,540.453,539.005,0
GENERATED VIA SPACETRACK.ORG API,18 SPCS,52365,STARLINK-3874,PAYLOAD,U,22045AL,2023-08-16 22:52:32,409696,15.08839985,9.58e-05,53.2137,69.8054,86.2254,273.8848,0,999,7465,0.00017599,2.514e-05,0,3982439,0 STARLINK-3874,1 52365U 22045AL  23228.95315289  .00002514  00000-0  17599-3 0  9999,2 52365  53.2137  69.8054 0000958  86.2254 273.8848 15.08839985 74653,2022-045AL,52365,6917.88,95.438,540.408,539.083,0
GENERATED VIA SPACETRACK.ORG API,18 SPCS,52365,STARLINK-3874,PAYLOAD,U,22045AL,2023-08-18 19:23:20,412096,15.0883967,0.0001135,53.2119,61.4778,101.5633,258.5486,0,999,7493,0.00011327,1.515e-05,0,3983963,0 STARLINK-3874,1 52365U 22045AL  23230.80787514  .00001515  00000-0  11327-3 0  9993,2 52365  53.2119  61.4778 0001135 101.5633 258.5486 15.08839670 74934,2022-045AL,52365,6917.881,95.438,540.532,538.961,0
GENERATED VIA SPACETRACK.ORG API,18 SPCS,52365,STARLINK-3874,PAYLOAD,U,22045AL,2023-08-19 20:49:30,799776,15.08839864,0.0001061,53.2151,56.7225,94.3071,265.8043,0,999,7509,5.6514e-05,6.12e-06,0,3984797,0 STARLINK-3874,1 52365U 22045AL  23231.86771759  .00000612  00000-0  56514-4 0  9999,2 52365  53.2151  56.7225 0001061  94.3071 265.8043 15.08839864 75090,2022-045AL,52365,6917.881,95.438,540.48,539.012,0
GENERATED VIA SPACETRACK.ORG API,18 SPCS,52365,STARLINK-3874,PAYLOAD,U,22045AL,2023-08-20 22:15:40,618944,15.08848704,8.04e-05,53.2166,51.9634,100.7171,259.3912,0,999,7525,0.00021798,3.184e-05,0,3986013,0 STARLINK-3874,1 52365U 22045AL  23232.92755346  .00003184  00000-0  21798-3 0  9993,2 52365  53.2166  51.9634 0000804 100.7171 259.3912 15.08848704 75258,2022-045AL,52365,6917.854,95.437,540.275,539.163,0
GENERATED VIA SPACETRACK.ORG API,18 SPCS,52365,STARLINK-3874,PAYLOAD,U,22045AL,2023-08-21 10:58:46,329888,15.08839326,0.0001469,53.2163,49.584,83.1103,277.0056,0,999,7533,0.00010954,1.456e-05,0,3986320,0 STARLINK-3874,1 52365U 22045AL  23233.45748067  .00001456  00000-0  10954-3 0  9996,2 52365  53.2163  49.5840 0001469  83.1103 277.0056 15.08839326 75339,2022-045AL,52365,6917.882,95.438,540.764,538.731,0
GENERATED VIA SPACETRACK.ORG API,18 SPCS,52365,STARLINK-3874,PAYLOAD,U,22045AL,2023-08-22 12:24:56,800512,15.08834561,8.76e-05,53.2185,44.8289,90.5442,269.565,0,999,7549,-7.0399e-05,-1.408e-05,0,3987081,0 STARLINK-3874,1 52365U 22045AL  23234.51732408 -.00001408  00000-0 -70399-4 0  9995,2 52365  53.2185  44.8289 0000876  90.5442 269.5650 15.08834561 75496,2022-045AL,52365,6917.897,95.438,540.368,539.156,0
GENERATED VIA SPACETRACK.ORG API,18 SPCS,52365,STARLINK-3874,PAYLOAD,U,22045AL,2023-08-24 13:41:54,11328,15.08842383,9.81e-05,53.2175,35.6105,73.5485,286.5615,0,999,7580,0.00011427,1.531e-05,0,3988199,0 STARLINK-3874,1 52365U 22045AL  23236.57076402  .00001531  00000-0  11427-3 0  9999,2 52365  53.2175  35.6105 0000981  73.5485 286.5615 15.08842383 75801,2022-045AL,52365,6917.873,95.437,540.417,539.059,0
GENERATED VIA SPACETRACK.ORG API,18 SPCS,52365,STARLINK-3874,PAYLOAD,U,22045AL,2023-08-25 16:43:26,92128,15.08862556,9.62e-05,53.2174,30.5548,69.0245,291.085,0,999,7597,0.0003635,5.506e-05,0,3989017,0 STARLINK-3874,1 52365U 22045AL  23237.69682977  .00005506  00000-0  36350-3 0  9991,2 52365  53.2174  30.5548 0000962  69.0245 291.0850 15.08862556 75972,2022-045AL,52365,6917.811,95.436,540.342,539.011,0
GENERATED VIA SPACETRACK.ORG API,18 SPCS,52365,STARLINK-3874,PAYLOAD,U,22045AL,2023-08-25 16:43:26,92128,15.08862556,9.62e-05,53.2174,30.5548,69.0245,291.085,0,999,7597,0.0003635,5.506e-05,0,3989051,0 STARLINK-3874,1 52365U 22045AL  23237.69682977  .00005506  00000-0  36350-3 0  9991,2 52365  53.2174  30.5548 0000962  69.0245 291.0850 15.08862556 75972,2022-045AL,52365,6917.811,95.436,540.342,539.011,0
GENERATED VIA SPACETRACK.ORG API,18 SPCS,52365,STARLINK-3874,PAYLOAD,U,22045AL,2023-08-26 13:23:27,669696,15.08839509,9.68e-05,53.2177,26.6885,76.5085,283.6015,0,999,7610,-2.3511e-05,-6.62e-06,0,3989608,0 STARLINK-3874,1 52365U 22045AL  23238.55795914 -.00000662  00000-0 -23511-4 0  9999,2 52365  53.2177  26.6885 0000968  76.5085 283.6015 15.08839509 76104,2022-045AL,52365,6917.882,95.438,540.417,539.077,0
GENERATED VIA SPACETRACK.ORG API,18 SPCS,52365,STARLINK-3874,PAYLOAD,U,22045AL,2023-08-26 16:34:14,166336,15.08834363,0.0001055,53.2182,26.0938,65.954,294.1562,0,999,7612,-0.00010901,-2.022e-05,0,3989854,0 STARLINK-3874,1 52365U 22045AL  23238.69044174 -.00002022  00000-0 -10901-3 0  9999,2 52365  53.2182  26.0938 0001055  65.9540 294.1562 15.08834363 76128,2022-045AL,52365,6917.898,95.438,540.492,539.033,0
GENERATED VIA SPACETRACK.ORG API,18 SPCS,52365,STARLINK-3874,PAYLOAD,U,22045AL,2023-08-26 16:34:14,166336,15.08834363,0.0001055,53.2182,26.0938,65.954,294.1562,0,999,7612,-0.00010901,-2.022e-05,0,3989878,0 STARLINK-3874,1 52365U 22045AL  23238.69044174 -.00002022  00000-0 -10901-3 0  9999,2 52365  53.2182  26.0938 0001055  65.9540 294.1562 15.08834363 76128,2022-045AL,52365,6917.898,95.438,540.492,539.033,0
GENERATED VIA SPACETRACK.ORG API,18 SPCS,52365,STARLINK-3874,PAYLOAD,U,22045AL,2023-08-27 14:49:38,537760,15.08831447,8.27e-05,53.218,21.93,104.1849,255.9235,0,999,7626,1.9291e-05,1.9e-07,0,3990698,0 STARLINK-3874,1 52365U 22045AL  23239.61780715  .00000019  00000-0  19291-4 0  9994,2 52365  53.2180  21.9300 0000827 104.1849 255.9235 15.08831447 76264,2022-045AL,52365,6917.907,95.438,540.344,539.199,0
GENERATED VIA SPACETRACK.ORG API,18 SPCS,52365,STARLINK-3874,PAYLOAD,U,22045AL,2023-08-28 01:57:20,197728,15.08842607,8.67e-05,53.218,19.8491,103.3694,256.7395,0,999,7633,0.00010393,1.367e-05,0,3990963,0 STARLINK-3874,1 52365U 22045AL  23240.08148377  .00001367  00000-0  10393-3 0  9999,2 52365  53.2180  19.8491 0000867 103.3694 256.7395 15.08842607 76338,2022-045AL,52365,6917.872,95.437,540.337,539.138,0
GENERATED VIA SPACETRACK.ORG API,18 SPCS,52365,STARLINK-3874,PAYLOAD,U,22045AL,2023-08-28 19:26:34,966752,15.08846332,9.26e-05,53.2174,16.579,90.5751,269.5347,0,999,7644,0.00037424,5.674e-05,0,3991628,0 STARLINK-3874,1 52365U 22045AL  23240.81012693  .00005674  00000-0  37424-3 0  9990,2 52365  53.2174  16.5790 0000926  90.5751 269.5347 15.08846332 76444,2022-045AL,52365,6917.861,95.437,540.367,539.085,0
GENERATED VIA SPACETRACK.ORG API,18 SPCS,52365,STARLINK-3874,PAYLOAD,U,22045AL,2023-08-29 01:48:07,711200,15.08841411,0.0001017,53.2181,15.3877,83.8983,276.2125,0,999,7648,0.0002207,3.227e-05,0,3991915,0 STARLINK-3874,1 52365U 22045AL  23241.07508925  .00003227  00000-0  22070-3 0  9990,2 52365  53.2181  15.3877 0001017  83.8983 276.2125 15.08841411 76485,2022-045AL,52365,6917.876,95.437,540.445,539.038,0
GENERATED VIA SPACETRACK.ORG API,18 SPCS,52365,STARLINK-3874,PAYLOAD,U,22045AL,2023-08-29 14:31:12,877824,15.08837224,8.32e-05,53.2176,13.0098,102.6235,257.4851,0,999,7656,2.3793e-05,9.1e-07,0,3992439,0 STARLINK-3874,1 52365U 22045AL  23241.60501016  .00000091  00000-0  23793-4 0  9993,2 52365  53.2176  13.0098 0000832 102.6235 257.4851 15.08837224 76566,2022-045AL,52365,6917.889,95.438,540.329,539.178,0
GENERATED VIA SPACETRACK.ORG API,18 SPCS,52365,STARLINK-3874,PAYLOAD,U,22045AL,2023-08-29 16:06:36,56160,15.08836667,7.71e-05,53.2175,12.7133,96.9014,263.2066,0,999,7657,1.4141e-05,-6.3e-07,0,3992705,0 STARLINK-3874,1 52365U 22045AL  23241.67125065 -.00000063  00000-0  14141-4 0  9993,2 52365  53.2175  12.7133 0000771  96.9014 263.2066 15.08836667 76577,2022-045AL,52365,6917.891,95.438,540.289,539.222,0
